[{"OBJECT_NAME":"STARLINK-5612","OBJECT_ID":"2023-028P","EPOCH":"2026-03-09T21:34:38.158464","MEAN_MOTION":14.98331533,"ECCENTRICITY":0.00029939,"INCLINATION":69.9996,"RA_OF_ASC_NODE":243.8394,"ARG_OF_PERICENTER":269.4105,"MEAN_ANOMALY":90.6711,"EPHEMERIS_TYPE":0,"CLASSIFICATION_TYPE":"U","NORAD_CAT_ID":55754,"ELEMENT_SET_NO":999,"REV_AT_EPOCH":16607,"BSTAR":-2.0997489e-5,"MEAN_MOTION_DOT":-3.44e-6,"MEAN_MOTION_DDOT":0},{"OBJECT_NAME":"QPS-SAR-15 (SUKUNAMI-I)","OBJECT_ID":"2025-307A","EPOCH":"2026-03-08T23:55:57.082080","MEAN_MOTION":14.98074148,"ECCENTRICITY":0.00081968,"INCLINATION":42.0068,"RA_OF_ASC_NODE":57.7223,"ARG_OF_PERICENTER":56.4325,"MEAN_ANOMALY":303.7282,"EPHEMERIS_TYPE":0,"CLASSIFICATION_TYPE":"U","NORAD_CAT_ID":67228,"ELEMENT_SET_NO":999,"REV_AT_EPOCH":1165,"BSTAR":0.00063967163,"MEAN_MOTION_DOT":7.522e-5,"MEAN_MOTION_DDOT":0}]
